CCSDS_OMM_VERS = 2.0
CREATION_DATE  = 
ORIGINATOR     = 

OBJECT_NAME    = RSP-03
OBJECT_ID      = 1998-067XL
CENTER_NAME    = EARTH
REF_FRAME      = TEME
TIME_SYSTEM    = UTC
MEAN_ELEMENT_THEORY = SGP/SGP4

EPOCH          = 2026-02-14T07:30:53.607744
MEAN_MOTION    = 16.18709094
ECCENTRICITY   = .0009764
INCLINATION    = 51.6105
RA_OF_ASC_NODE = 165.6138
ARG_OF_PERICENTER = 331.2305
MEAN_ANOMALY   = 28.8173

EPHEMERIS_TYPE = 0
CLASSIFICATION_TYPE = U
NORAD_CAT_ID   = 65732
ELEMENT_SET_NO = 999
REV_AT_EPOCH   = 2323
BSTAR          = .1337E-2
MEAN_MOTION_DOT = .2432991E-1
MEAN_MOTION_DDOT = .11836E-4

CCSDS_OMM_VERS = 2.0
CREATION_DATE  = 
ORIGINATOR     = 

OBJECT_NAME    = YOTSUBA-KULOVER
OBJECT_ID      = 1998-067XN
CENTER_NAME    = EARTH
REF_FRAME      = TEME
TIME_SYSTEM    = UTC
MEAN_ELEMENT_THEORY = SGP/SGP4

EPOCH          = 2026-02-14T05:52:30.921312
MEAN_MOTION    = 15.72411013
ECCENTRICITY   = .00044497
INCLINATION    = 51.6246
RA_OF_ASC_NODE = 178.0885
ARG_OF_PERICENTER = 299.8232
MEAN_ANOMALY   = 60.2324

EPHEMERIS_TYPE = 0
CLASSIFICATION_TYPE = U
NORAD_CAT_ID   = 65941
ELEMENT_SET_NO = 999
REV_AT_EPOCH   = 1980
BSTAR          = .10773507E-2
MEAN_MOTION_DOT = .148508E-2
MEAN_MOTION_DDOT = 0

CCSDS_OMM_VERS = 2.0
CREATION_DATE  = 
ORIGINATOR     = 

OBJECT_NAME    = BOTAN
OBJECT_ID      = 1998-067XP
CENTER_NAME    = EARTH
REF_FRAME      = TEME
TIME_SYSTEM    = UTC
MEAN_ELEMENT_THEORY = SGP/SGP4

EPOCH          = 2026-02-14T06:09:52.001568
MEAN_MOTION    = 15.88758377
ECCENTRICITY   = .00079734
INCLINATION    = 51.6157
RA_OF_ASC_NODE = 173.6046
ARG_OF_PERICENTER = 322.9275
MEAN_ANOMALY   = 37.1178

EPHEMERIS_TYPE = 0
CLASSIFICATION_TYPE = U
NORAD_CAT_ID   = 65942
ELEMENT_SET_NO = 999
REV_AT_EPOCH   = 1986
BSTAR          = .15238472E-2
MEAN_MOTION_DOT = .463784E-2
MEAN_MOTION_DDOT = 0

CCSDS_OMM_VERS = 2.0
CREATION_DATE  = 
ORIGINATOR     = 

OBJECT_NAME    = E-KAGAKU-1
OBJECT_ID      = 1998-067XQ
CENTER_NAME    = EARTH
REF_FRAME      = TEME
TIME_SYSTEM    = UTC
MEAN_ELEMENT_THEORY = SGP/SGP4

EPOCH          = 2026-02-13T14:38:57.410880
MEAN_MOTION    = 15.72107679
ECCENTRICITY   = .00041847
INCLINATION    = 51.6267
RA_OF_ASC_NODE = 181.3641
ARG_OF_PERICENTER = 310.1577
MEAN_ANOMALY   = 49.9054

EPHEMERIS_TYPE = 0
CLASSIFICATION_TYPE = U
NORAD_CAT_ID   = 65943
ELEMENT_SET_NO = 999
REV_AT_EPOCH   = 1970
BSTAR          = .93827869E-3
MEAN_MOTION_DOT = .127268E-2
MEAN_MOTION_DDOT = 0

CCSDS_OMM_VERS = 2.0
CREATION_DATE  = 
ORIGINATOR     = 

OBJECT_NAME    = HRC MONOBLOCK CAMERA
OBJECT_ID      = 1998-067XR
CENTER_NAME    = EARTH
REF_FRAME      = TEME
TIME_SYSTEM    = UTC
MEAN_ELEMENT_THEORY = SGP/SGP4

EPOCH          = 2026-02-14T09:30:18.708768
MEAN_MOTION    = 15.59764050
ECCENTRICITY   = .0001739
INCLINATION    = 51.6271
RA_OF_ASC_NODE = 182.8647
ARG_OF_PERICENTER = 9.0513
MEAN_ANOMALY   = 351.0511

EPHEMERIS_TYPE = 0
CLASSIFICATION_TYPE = U
NORAD_CAT_ID   = 66052
ELEMENT_SET_NO = 999
REV_AT_EPOCH   = 1875
BSTAR          = .59167E-3
MEAN_MOTION_DOT = .48108E-3
MEAN_MOTION_DDOT = 0

CCSDS_OMM_VERS = 2.0
CREATION_DATE  = 
ORIGINATOR     = 

OBJECT_NAME    = HTV-X1
OBJECT_ID      = 2025-241A
CENTER_NAME    = EARTH
REF_FRAME      = TEME
TIME_SYSTEM    = UTC
MEAN_ELEMENT_THEORY = SGP/SGP4

EPOCH          = 2026-02-14T05:08:48.534432
MEAN_MOTION    = 15.48593530
ECCENTRICITY   = .00110623
INCLINATION    = 51.6315
RA_OF_ASC_NODE = 188.3997
ARG_OF_PERICENTER = 96.9141
MEAN_ANOMALY   = 263.3106

EPHEMERIS_TYPE = 0
CLASSIFICATION_TYPE = U
NORAD_CAT_ID   = 66174
ELEMENT_SET_NO = 999
REV_AT_EPOCH   = 51
BSTAR          = .16303535E-3
MEAN_MOTION_DOT = .8429E-4
MEAN_MOTION_DDOT = 0

CCSDS_OMM_VERS = 2.0
CREATION_DATE  = 
ORIGINATOR     = 

OBJECT_NAME    = SZ-21 MODULE
OBJECT_ID      = 2025-246C
CENTER_NAME    = EARTH
REF_FRAME      = TEME
TIME_SYSTEM    = UTC
MEAN_ELEMENT_THEORY = SGP/SGP4

EPOCH          = 2026-02-14T04:23:26.125728
MEAN_MOTION    = 15.66742900
ECCENTRICITY   = .0002276
INCLINATION    = 41.4766
RA_OF_ASC_NODE = 347.8589
ARG_OF_PERICENTER = 294.3248
MEAN_ANOMALY   = 65.7355

EPHEMERIS_TYPE = 0
CLASSIFICATION_TYPE = U
NORAD_CAT_ID   = 66515
ELEMENT_SET_NO = 999
REV_AT_EPOCH   = 1438
BSTAR          = .33554E-3
MEAN_MOTION_DOT = .36199E-3
MEAN_MOTION_DDOT = 0

CCSDS_OMM_VERS = 2.0
CREATION_DATE  = 
ORIGINATOR     = 

OBJECT_NAME    = SHENZHOU-22
OBJECT_ID      = 2025-272A
CENTER_NAME    = EARTH
REF_FRAME      = TEME
TIME_SYSTEM    = UTC
MEAN_ELEMENT_THEORY = SGP/SGP4

EPOCH          = 2026-02-14T05:20:28.941216
MEAN_MOTION    = 15.59592517
ECCENTRICITY   = .00041385
INCLINATION    = 41.4681
RA_OF_ASC_NODE = 350.8379
ARG_OF_PERICENTER = 88.4317
MEAN_ANOMALY   = 271.6995

EPHEMERIS_TYPE = 0
CLASSIFICATION_TYPE = U
NORAD_CAT_ID   = 66645
ELEMENT_SET_NO = 999
REV_AT_EPOCH   = 26764
BSTAR          = .21135878E-3
MEAN_MOTION_DOT = .17014E-3
MEAN_MOTION_DDOT = 0

CCSDS_OMM_VERS = 2.0
CREATION_DATE  = 
ORIGINATOR     = 

OBJECT_NAME    = SOYUZ-MS 28
OBJECT_ID      = 2025-275A
CENTER_NAME    = EARTH
REF_FRAME      = TEME
TIME_SYSTEM    = UTC
MEAN_ELEMENT_THEORY = SGP/SGP4

EPOCH          = 2026-02-14T09:47:35.232288
MEAN_MOTION    = 15.48597273
ECCENTRICITY   = .0011059
INCLINATION    = 51.6315
RA_OF_ASC_NODE = 187.4424
ARG_OF_PERICENTER = 97.5886
MEAN_ANOMALY   = 262.6359

EPHEMERIS_TYPE = 0
CLASSIFICATION_TYPE = U
NORAD_CAT_ID   = 66664
ELEMENT_SET_NO = 999
REV_AT_EPOCH   = 55272
BSTAR          = .16764E-3
MEAN_MOTION_DOT = .8682E-4
MEAN_MOTION_DDOT = 0

CCSDS_OMM_VERS = 2.0
CREATION_DATE  = 
ORIGINATOR     = 

OBJECT_NAME    = DUPLEX
OBJECT_ID      = 1998-067XS
CENTER_NAME    = EARTH
REF_FRAME      = TEME
TIME_SYSTEM    = UTC
MEAN_ELEMENT_THEORY = SGP/SGP4

EPOCH          = 2026-02-13T22:36:16.359264
MEAN_MOTION    = 15.54550697
ECCENTRICITY   = .00013553
INCLINATION    = 51.6281
RA_OF_ASC_NODE = 188.0819
ARG_OF_PERICENTER = 76.7932
MEAN_ANOMALY   = 283.3210

EPHEMERIS_TYPE = 0
CLASSIFICATION_TYPE = U
NORAD_CAT_ID   = 66906
ELEMENT_SET_NO = 999
REV_AT_EPOCH   = 1143
BSTAR          = .51453997E-3
MEAN_MOTION_DOT = .34258E-3
MEAN_MOTION_DDOT = 0

CCSDS_OMM_VERS = 2.0
CREATION_DATE  = 
ORIGINATOR     = 

OBJECT_NAME    = ISS OBJECT XT
OBJECT_ID      = 1998-067XT
CENTER_NAME    = EARTH
REF_FRAME      = TEME
TIME_SYSTEM    = UTC
MEAN_ELEMENT_THEORY = SGP/SGP4

EPOCH          = 2026-02-13T15:32:46.009536
MEAN_MOTION    = 15.62747982
ECCENTRICITY   = .00020788
INCLINATION    = 51.6268
RA_OF_ASC_NODE = 187.6156
ARG_OF_PERICENTER = 295.0599
MEAN_ANOMALY   = 65.0179

EPHEMERIS_TYPE = 0
CLASSIFICATION_TYPE = U
NORAD_CAT_ID   = 66907
ELEMENT_SET_NO = 999
REV_AT_EPOCH   = 1141
BSTAR          = .11358944E-2
MEAN_MOTION_DOT = .104949E-2
MEAN_MOTION_DDOT = 0

CCSDS_OMM_VERS = 2.0
CREATION_DATE  = 
ORIGINATOR     = 

OBJECT_NAME    = ISS OBJECT XU
OBJECT_ID      = 1998-067XU
CENTER_NAME    = EARTH
REF_FRAME      = TEME
TIME_SYSTEM    = UTC
MEAN_ELEMENT_THEORY = SGP/SGP4

EPOCH          = 2026-02-14T09:56:42.578016
MEAN_MOTION    = 15.62956480
ECCENTRICITY   = .0002048
INCLINATION    = 51.6257
RA_OF_ASC_NODE = 183.7323
ARG_OF_PERICENTER = 307.7011
MEAN_ANOMALY   = 52.3797

EPHEMERIS_TYPE = 0
CLASSIFICATION_TYPE = U
NORAD_CAT_ID   = 66908
ELEMENT_SET_NO = 999
REV_AT_EPOCH   = 1153
BSTAR          = .12781E-2
MEAN_MOTION_DOT = .119335E-2
MEAN_MOTION_DDOT = 0

